start=new Date('2022-08-29T00:00:00.000Z').valueOf();
sats=[{"TLE_LINE1":"1 52645U 22052AZ  22240.91667824 -.00007458  00000-0 -45088-3 0  9990","APOAPSIS":"541.069","CENTER_NAME":"EARTH","MEAN_ANOMALY":"155.3247","BSTAR":"-0.00045088000000","MEAN_ELEMENT_THEORY":"SGP4","RA_OF_ASC_NODE":"284.6323","EPHEMERIS_TYPE":"0","TIME_SYSTEM":"UTC","MEAN_MOTION":"15.08843912","PERIAPSIS":"538.398","FILE":"3550014","MEAN_MOTION_DDOT":"0.0000000000000","OBJECT_TYPE":"PAYLOAD","COUNTRY_CODE":"US","TLE_LINE2":"2 52645  53.2177 284.6323 0001930  40.2418 155.3247 15.08843912  1301","ELEMENT_SET_NO":"999","GP_ID":"211214857","ECCENTRICITY":"0.00019300","MEAN_MOTION_DOT":"-0.00007458","SEMIMAJOR_AXIS":"6917.868","CLASSIFICATION_TYPE":"U","OBJECT_NAME":"STARLINK-3973","PERIOD":"95.437","RCS_SIZE":"LARGE","SITE":"AFETR","DECAY_DATE":null,"ARG_OF_PERICENTER":"40.2418","EPOCH":"2022-08-28T22:00:00.999936","REV_AT_EPOCH":"130","NORAD_CAT_ID":"52645","OBJECT_ID":"2022-052AZ","INCLINATION":"53.2177","LAUNCH_DATE":"2022-05-14","REF_FRAME":"TEME"},{"CENTER_NAME":"EARTH","TLE_LINE1":"1 52646U 22052BA  22240.91667824  .00019531  00000-0  12421-2 0  9998","APOAPSIS":"541.022","MEAN_ANOMALY":"99.2117","MEAN_MOTION":"15.08832801","EPHEMERIS_TYPE":"0","TIME_SYSTEM":"UTC","RA_OF_ASC_NODE":"284.6345","BSTAR":"0.00124210000000","MEAN_ELEMENT_THEORY":"SGP4","FILE":"3550014","PERIAPSIS":"538.513","TLE_LINE2":"2 52646  53.2149 284.6345 0001813  41.5160  99.2117 15.08832801  1300","COUNTRY_CODE":"US","OBJECT_TYPE":"PAYLOAD","MEAN_MOTION_DDOT":"0.0000000000000","ELEMENT_SET_NO":"999","GP_ID":"211215149","SEMIMAJOR_AXIS":"6917.902","MEAN_MOTION_DOT":"0.00019531","ECCENTRICITY":"0.00018130","OBJECT_NAME":"STARLINK-3832","CLASSIFICATION_TYPE":"U","SITE":"AFETR","RCS_SIZE":"LARGE","PERIOD":"95.438","EPOCH":"2022-08-28T22:00:00.999936","ARG_OF_PERICENTER":"41.5160","DECAY_DATE":null,"NORAD_CAT_ID":"52646","REV_AT_EPOCH":"130","INCLINATION":"53.2149","OBJECT_ID":"2022-052BA","LAUNCH_DATE":"2022-05-14","REF_FRAME":"TEME"},{"CLASSIFICATION_TYPE":"U","OBJECT_NAME":"STARLINK-3846","DECAY_DATE":null,"EPOCH":"2022-08-28T22:00:00.999936","ARG_OF_PERICENTER":"51.2248","RCS_SIZE":"LARGE","PERIOD":"95.439","SITE":"AFETR","OBJECT_ID":"2022-052BB","INCLINATION":"53.2178","NORAD_CAT_ID":"52647","REV_AT_EPOCH":"130","REF_FRAME":"TEME","LAUNCH_DATE":"2022-05-14","MEAN_ANOMALY":"184.3587","TLE_LINE1":"1 52647U 22052BB  22240.91667824  .00020459  00000-0  13004-2 0  9998","APOAPSIS":"541.012","CENTER_NAME":"EARTH","PERIAPSIS":"538.581","FILE":"3550014","RA_OF_ASC_NODE":"284.6330","BSTAR":"0.00130040000000","MEAN_ELEMENT_THEORY":"SGP4","MEAN_MOTION":"15.08823418","EPHEMERIS_TYPE":"0","TIME_SYSTEM":"UTC","ELEMENT_SET_NO":"999","OBJECT_TYPE":"PAYLOAD","COUNTRY_CODE":"US","MEAN_MOTION_DDOT":"0.0000000000000","TLE_LINE2":"2 52647  53.2178 284.6330 0001757  51.2248 184.3587 15.08823418  1300","ECCENTRICITY":"0.00017570","SEMIMAJOR_AXIS":"6917.931","MEAN_MOTION_DOT":"0.00020459","GP_ID":"211215003"},{"OBJECT_NAME":"STARLINK-3854","CLASSIFICATION_TYPE":"U","SITE":"AFETR","RCS_SIZE":"LARGE","PERIOD":"95.438","EPOCH":"2022-08-28T22:00:00.999936","ARG_OF_PERICENTER":"43.6999","DECAY_DATE":null,"NORAD_CAT_ID":"52648","REV_AT_EPOCH":"130","INCLINATION":"53.2152","OBJECT_ID":"2022-052BC","LAUNCH_DATE":"2022-05-14","REF_FRAME":"TEME","CENTER_NAME":"EARTH","APOAPSIS":"541.174","TLE_LINE1":"1 52648U 22052BC  22240.91667824  .00019554  00000-0  12435-2 0  9990","MEAN_ANOMALY":"117.0363","MEAN_MOTION":"15.08832576","TIME_SYSTEM":"UTC","EPHEMERIS_TYPE":"0","RA_OF_ASC_NODE":"284.6327","BSTAR":"0.00124350000000","MEAN_ELEMENT_THEORY":"SGP4","FILE":"3550014","PERIAPSIS":"538.362","TLE_LINE2":"2 52648  53.2152 284.6327 0002033  43.6999 117.0363 15.08832576  1305","COUNTRY_CODE":"US","OBJECT_TYPE":"PAYLOAD","MEAN_MOTION_DDOT":"0.0000000000000","ELEMENT_SET_NO":"999","GP_ID":"211215872","SEMIMAJOR_AXIS":"6917.903","MEAN_MOTION_DOT":"0.00019554","ECCENTRICITY":"0.00020330"},{"NORAD_CAT_ID":"52649","REV_AT_EPOCH":"130","OBJECT_ID":"2022-052BD","INCLINATION":"53.2180","LAUNCH_DATE":"2022-05-14","REF_FRAME":"TEME","CLASSIFICATION_TYPE":"U","OBJECT_NAME":"STARLINK-3868","RCS_SIZE":"LARGE","PERIOD":"95.438","SITE":"AFETR","DECAY_DATE":null,"EPOCH":"2022-08-28T22:00:00.999936","ARG_OF_PERICENTER":"45.9884","COUNTRY_CODE":"US","OBJECT_TYPE":"PAYLOAD","MEAN_MOTION_DDOT":"0.0000000000000","TLE_LINE2":"2 52649  53.2180 284.6321 0001645  45.9884 169.5443 15.08833958  1303","ELEMENT_SET_NO":"999","GP_ID":"211215276","ECCENTRICITY":"0.00016450","SEMIMAJOR_AXIS":"6917.899","MEAN_MOTION_DOT":"0.00020206","TLE_LINE1":"1 52649U 22052BD  22240.91667824  .00020206  00000-0  12842-2 0  9999","APOAPSIS":"540.902","CENTER_NAME":"EARTH","MEAN_ANOMALY":"169.5443","RA_OF_ASC_NODE":"284.6321","MEAN_ELEMENT_THEORY":"SGP4","BSTAR":"0.00128420000000","MEAN_MOTION":"15.08833958","TIME_SYSTEM":"UTC","EPHEMERIS_TYPE":"0","PERIAPSIS":"538.626","FILE":"3550014"},{"LAUNCH_DATE":"2022-05-14","REF_FRAME":"TEME","REV_AT_EPOCH":"130","NORAD_CAT_ID":"52650","INCLINATION":"53.2174","OBJECT_ID":"2022-052BE","SITE":"AFETR","PERIOD":"93.417","RCS_SIZE":"LARGE","ARG_OF_PERICENTER":"33.3749","EPOCH":"2022-08-28T22:00:00.999936","DECAY_DATE":null,"OBJECT_NAME":"STARLINK-3891","CLASSIFICATION_TYPE":"U","GP_ID":"211215566","MEAN_MOTION_DOT":"-0.01068136","SEMIMAJOR_AXIS":"6819.915","ECCENTRICITY":"0.00016560","TLE_LINE2":"2 52650  53.2174 276.2405 0001656  33.3749  15.2112 15.41467447  1304","MEAN_MOTION_DDOT":"0.0000000000000","OBJECT_TYPE":"PAYLOAD","COUNTRY_CODE":"US","ELEMENT_SET_NO":"999","EPHEMERIS_TYPE":"0","TIME_SYSTEM":"UTC","MEAN_MOTION":"15.41467447","MEAN_ELEMENT_THEORY":"SGP4","BSTAR":"-0.02732800000000","RA_OF_ASC_NODE":"276.2405","FILE":"3550014","PERIAPSIS":"440.650","CENTER_NAME":"EARTH","TLE_LINE1":"1 52650U 22052BE  22240.91667824 -.01068136  00000-0 -27328-1 0  9992","APOAPSIS":"442.909","MEAN_ANOMALY":"15.2112"},{"TLE_LINE1":"1 52656U 22053A   22240.91667824 -.00010399  00000-0 -63607-3 0  9998","APOAPSIS":"540.984","CENTER_NAME":"EARTH","MEAN_ANOMALY":"250.4229","MEAN_ELEMENT_THEORY":"SGP4","BSTAR":"-0.00063607000000","RA_OF_ASC_NODE":"179.6419","EPHEMERIS_TYPE":"0","TIME_SYSTEM":"UTC","MEAN_MOTION":"15.08848767","FILE":"3550014","PERIAPSIS":"538.453","MEAN_MOTION_DDOT":"0.0000000000000","COUNTRY_CODE":"US","OBJECT_TYPE":"PAYLOAD","TLE_LINE2":"2 52656  53.2168 179.6419 0001829  67.8628 250.4229 15.08848767  1307","ELEMENT_SET_NO":"999","GP_ID":"211215709","ECCENTRICITY":"0.00018290","MEAN_MOTION_DOT":"-0.00010399","SEMIMAJOR_AXIS":"6917.854","CLASSIFICATION_TYPE":"U","OBJECT_NAME":"STARLINK-4004","PERIOD":"95.437","RCS_SIZE":"LARGE","SITE":"AFETR","DECAY_DATE":null,"ARG_OF_PERICENTER":"67.8628","EPOCH":"2022-08-28T22:00:00.999936","REV_AT_EPOCH":"130","NORAD_CAT_ID":"52656","OBJECT_ID":"2022-053A","INCLINATION":"53.2168","LAUNCH_DATE":"2022-05-18","REF_FRAME":"TEME"},{"REF_FRAME":"TEME","LAUNCH_DATE":"2022-05-18","OBJECT_ID":"2022-053B","INCLINATION":"53.2166","NORAD_CAT_ID":"52657","REV_AT_EPOCH":"130","DECAY_DATE":null,"EPOCH":"2022-08-28T22:00:00.999936","ARG_OF_PERICENTER":"67.8410","RCS_SIZE":"LARGE","PERIOD":"95.437","SITE":"AFETR","CLASSIFICATION_TYPE":"U","OBJECT_NAME":"STARLINK-4084","ECCENTRICITY":"0.00016730","SEMIMAJOR_AXIS":"6917.860","MEAN_MOTION_DOT":"-0.00011674","GP_ID":"211214858","ELEMENT_SET_NO":"999","OBJECT_TYPE":"PAYLOAD","COUNTRY_CODE":"US","MEAN_MOTION_DDOT":"0.0000000000000","TLE_LINE2":"2 52657  53.2166 179.6422 0001673  67.8410 210.4446 15.08846714  1303","PERIAPSIS":"538.568","FILE":"3550014","RA_OF_ASC_NODE":"179.6422","BSTAR":"-0.00071645000000","MEAN_ELEMENT_THEORY":"SGP4","MEAN_MOTION":"15.08846714","TIME_SYSTEM":"UTC","EPHEMERIS_TYPE":"0","MEAN_ANOMALY":"210.4446","APOAPSIS":"540.882","TLE_LINE1":"1 52657U 22053B   22240.91667824 -.00011674  00000-0 -71645-3 0  9997","CENTER_NAME":"EARTH"},{"OBJECT_NAME":"STARLINK-4082","CLASSIFICATION_TYPE":"U","SITE":"AFETR","PERIOD":"95.436","RCS_SIZE":"LARGE","ARG_OF_PERICENTER":"56.2444","EPOCH":"2022-08-28T22:00:00.999936","DECAY_DATE":null,"REV_AT_EPOCH":"130","NORAD_CAT_ID":"52658","INCLINATION":"53.2166","OBJECT_ID":"2022-053C","LAUNCH_DATE":"2022-05-18","REF_FRAME":"TEME","CENTER_NAME":"EARTH","TLE_LINE1":"1 52658U 22053C   22240.91667824 -.00042529  00000-0 -26683-2 0  9992","APOAPSIS":"541.041","MEAN_ANOMALY":"242.0339","TIME_SYSTEM":"UTC","EPHEMERIS_TYPE":"0","MEAN_MOTION":"15.08860695","MEAN_ELEMENT_THEORY":"SGP4","BSTAR":"-0.00266830000000","RA_OF_ASC_NODE":"179.6410","FILE":"3550014","PERIAPSIS":"538.323","TLE_LINE2":"2 52658  53.2166 179.6410 0001964  56.2444 242.0339 15.08860695  1309","MEAN_MOTION_DDOT":"0.0000000000000","COUNTRY_CODE":"US","OBJECT_TYPE":"PAYLOAD","ELEMENT_SET_NO":"999","GP_ID":"211215150","MEAN_MOTION_DOT":"-0.00042529","SEMIMAJOR_AXIS":"6917.817","ECCENTRICITY":"0.00019640"},{"REF_FRAME":"TEME","LAUNCH_DATE":"2022-05-18","INCLINATION":"53.2158","OBJECT_ID":"2022-053D","NORAD_CAT_ID":"52659","REV_AT_EPOCH":"130","EPOCH":"2022-08-28T22:00:00.999936","ARG_OF_PERICENTER":"64.6932","DECAY_DATE":null,"SITE":"AFETR","RCS_SIZE":"LARGE","PERIOD":"95.436","OBJECT_NAME":"STARLINK-3960","CLASSIFICATION_TYPE":"U","SEMIMAJOR_AXIS":"6917.791","MEAN_MOTION_DOT":"-0.00010649","ECCENTRICITY":"0.00021120","GP_ID":"211215004","ELEMENT_SET_NO":"999","TLE_LINE2":"2 52659  53.2158 179.6407 0002112  64.6932 228.2547 15.08869096  1309","COUNTRY_CODE":"US","OBJECT_TYPE":"PAYLOAD","MEAN_MOTION_DDOT":"0.0000000000000","PERIAPSIS":"538.195","FILE":"3550014","MEAN_MOTION":"15.08869096","TIME_SYSTEM":"UTC","EPHEMERIS_TYPE":"0","RA_OF_ASC_NODE":"179.6407","MEAN_ELEMENT_THEORY":"SGP4","BSTAR":"-0.00065140000000","MEAN_ANOMALY":"228.2547","CENTER_NAME":"EARTH","APOAPSIS":"541.117","TLE_LINE1":"1 52659U 22053D   22240.91667824 -.00010649  00000-0 -65140-3 0  9993"}];
